154P/Brewington,e,17.6226,342.9825,47.9248,4.804421,0.0935928,0.67471249,171.8533,12/16.0/2018,2000,g  2.5,12.0
# From MPC 75720
155P/Shoemaker,e,6.3958,97.2010,14.6849,6.588680,0.0582782,0.72657923,340.5220,12/16.0/2018,2000,g 10.0,4.8
# From MPC105242
156P/Russell-LINEAR,e,17.5886,36.1112,359.7695,3.462717,0.1529603,0.61817254,252.8317,12/16.0/2018,2000,g 15.5,2.0
# From MPC104795
157P/Tritton,e,7.4237,298.4261,150.0627,3.395652,0.1575140,0.60807695,144.1364,12/16.0/2018,2000,g 10.0,4.0
# From MPC 10028
158P/Kowal-LINEAR,e,7.8646,136.7664,242.7972,4.791860,0.0939611,0.01962820,207.6133,12/16.0/2018,2000,g  9.0,4.0
# From MPC 75721
159P/LONEOS,e,23.4620,55.0234,4.7390,5.861862,0.0694466,0.38158054,14.3992,12/16.0/2018,2000,g 10.0,4.0
# From MPC102101
160P/LINEAR,e,15.6110,333.4443,12.5718,3.775020,0.1343771,0.52668023,312.7994,12/16.0/2018,2000,g 15.5,2.0
# From MPC 75721
161P/Hartley-IRAS,e,95.6556,1.3319,46.9123,7.726454,0.0458917,0.83462065,226.6795,12/16.0/2018,2000,g  8.5,6.0
# From MPC105242
162P/Siding Spring,e,27.6648,31.0633,357.1127,3.087662,0.1816600,0.58435163,228.7993,12/16.0/2018,2000,g 12.0,4.0
# From MPC102101
163P/NEAT,e,12.7075,102.0942,349.7171,3.770745,0.1346056,0.45197249,328.7334,12/16.0/2018,2000,g 14.5,4.0
# From MPC106349
164P/Christensen,e,16.2530,88.3057,325.9221,3.661049,0.1407006,0.53969602,27.9442,12/16.0/2018,2000,g 11.0,4.0
# From MPC 75721
165P/LINEAR,e,15.9030,0.6222,126.4193,17.91971,0.0129929,0.61560516,87.9979,12/16.0/2018,2000,g 11.5,2.0
# From MPC 75722
166P/NEAT,e,15.3576,64.5384,321.6425,13.85748,0.0191064,0.38032202,116.0559,12/16.0/2018,2000,g  5.5,4.0
# From MPC 75722
167P/CINEOS,e,19.1154,295.6972,343.7255,16.15724,0.0151759,0.27319095,97.8574,12/16.0/2018,2000,g  9.5,2.0
# From MPC102101
168P/Hergenrother,e,21.6108,355.4850,14.9677,3.582063,0.1453799,0.62060161,326.2540,12/16.0/2018,2000,g 15.5,4.0
# From MPC 94676
169P/NEAT,e,11.2953,176.0858,218.0883,2.602072,0.2348147,0.76799985,54.1027,12/16.0/2018,2000,g 16.0,2.0
# From MPC 89012
170P/Christensen,e,10.1246,142.9163,225.7519,4.198137,0.1145827,0.30312495,177.8745,12/16.0/2018,2000,g 12.0,4.0
# From MPC102102
171P/Spahr,e,21.9330,101.6960,347.1498,3.558857,0.1468041,0.50199490,355.7846,12/16.0/2018,2000,g 13.5,4.0
# From MPC 93588
172P/Yeung,e,11.2368,30.8889,209.2182,4.207675,0.1141934,0.20665300,73.3694,12/16.0/2018,2000,g 13.0,4.0
# From MPC 75722
173P/Mueller,e,16.4963,100.4091,29.5446,5.696186,0.0724983,0.26070760,280.3079,12/16.0/2018,2000,g  7.5,4.0
# From MPC 92985
174P/Echeclus,e,4.3437,173.3134,162.7991,10.68835,0.0282058,0.45624583,37.6429,12/16.0/2018,2000,g  9.4,2.0
# From MPC102102
175P/Hergenrother,e,6.0768,123.5345,56.1718,3.428563,0.1552515,0.43229450,315.1737,12/16.0/2018,2000,g 14.0,4.0
# From MPC 88331
176P/LINEAR,e,0.2346,345.8814,35.2816,3.194205,0.1726474,0.19273317,111.2619,12/16.0/2018,2000,g 15.1,2.0
# From MPC 75723
177P/Barnard,e,31.3222,272.3307,60.2386,24.35127,0.0082020,0.95465689,36.8753,12/16.0/2018,2000,g 15.0,4.0
# From MPC105242
178P/Hug-Bell,e,11.0751,102.8822,297.5014,3.639407,0.1419575,0.48159102,277.9115,12/16.0/2018,2000,g 13.5,4.0
# From MPC 75723
179P/Jedicke,e,19.8907,115.5203,296.2676,5.948426,0.0679362,0.30520728,274.5277,12/16.0/2018,2000,g  2.5,8.0
# From MPC 10028
180P/NEAT,e,16.8687,84.5569,94.9224,3.858968,0.1300162,0.35408132,142.9918,12/16.0/2018,2000,g 11.0,4.0
# From MPC 89012
181P/Shoemaker-Levy,e,17.4868,35.4100,336.2976,3.869062,0.1295077,0.70024576,214.8843,12/16.0/2018,2000,g 11.5,4.0
# From MPC 88331
182P/LONEOS,e,16.2482,72.7947,53.7989,2.959353,0.1936016,0.66006918,118.7295,12/16.0/2018,2000,g 18.0,4.0
# From MPC110085
183P/Korlevic-Juric,e,18.7297,5.8235,161.7182,4.497988,0.1033182,0.13880782,40.9522,12/16.0/2018,2000,g 12.5,2.0
# From MPC105242
184P/Lovas,e,4.5801,173.4703,186.4956,3.786899,0.1337453,0.55235172,269.0456,12/16.0/2018,2000,g 13.5,4.0
# From MPC109593
185P/Petriew,e,13.9943,214.0983,181.9127,3.100836,0.1805036,0.69884360,58.1854,12/16.0/2018,2000,g 15.0,4.0
# From MPC 10028
186P/Garradd,e,28.4068,327.1294,283.7269,5.007095,0.0879681,0.12334353,347.7018,12/16.0/2018,2000,g  7.5,4.0
# From MPC104795
187P/LINEAR,e,13.6218,109.9245,132.9935,4.588674,0.1002705,0.15441294,20.6278,12/16.0/2018,2000,g  9.0,4.0
# From MPC106349
188P/LINEAR-Mueller,e,10.5125,358.9647,26.6887,4.379940,0.1075231,0.41467042,71.7465,12/16.0/2018,2000,g 11.5,4.0
# From MPC106349
189P/NEAT,e,20.0695,281.7416,16.2321,2.947539,0.1947667,0.58841996,96.7983,12/16.0/2018,2000,g 19.0,4.0
# From MPC 75724
190P/Mueller,e,2.1728,335.5516,50.3712,4.238437,0.1129524,0.52024168,110.9873,12/16.0/2018,2000,g 13.0,4.0
# From MPC 92277
191P/McNaught,e,8.7843,98.5083,284.0224,3.633074,0.1423288,0.39422092,243.2772,12/16.0/2018,2000,g 13.0,4.0
# From MPC 75724
192P/Shoemaker-Levy,e,24.5144,51.6704,312.8704,6.478852,0.0597664,0.77205342,241.1301,12/16.0/2018,2000,g 15.0,4.0
# From MPC 91618
193P/LINEAR-NEAT,e,10.6869,335.1945,8.3218,3.574220,0.1458587,0.39374218,216.4269,12/16.0/2018,2000,g 14.0,4.0
# From MPC 98566
194P/LINEAR,e,11.1383,351.8810,130.6157,3.992067,0.1235684,0.57594147,125.9019,12/16.0/2018,2000,g 16.0,4.0
# From MPC 75724
195P/Hill,e,36.3431,243.0845,249.6703,6.491384,0.0595934,0.31400123,215.8738,12/16.0/2018,2000,g  8.5,4.0
# From MPC 92985
196P/Tichy,e,19.3350,24.2483,12.4392,3.793006,0.1334224,0.42987636,171.2902,12/16.0/2018,2000,g 13.5,4.0
# From MPC 94676
197P/LINEAR,e,25.5564,66.3932,188.7000,2.866155,0.2031208,0.63011964,65.2332,12/16.0/2018,2000,g 16.5,2.0
# From MPC 65937
198P/ODAS,e,1.3379,358.3102,69.2628,3.602907,0.1441201,0.44324370,0.3019,12/16.0/2018,2000,g 12.5,4.0
# From MPC 75725
199P/Shoemaker,e,24.9333,92.3960,191.4622,5.904446,0.0686966,0.50556465,243.5196,12/16.0/2018,2000,g 10.0,4.0
# From MPC111774
200P/Larsen,e,12.1058,234.8016,133.9763,4.932204,0.0899793,0.33148372,339.8001,12/16.0/2018,2000,g  9.0,4.0
# From MPC 93588
201P/LONEOS,e,6.8069,33.8510,26.1123,3.420453,0.1558040,0.62929869,220.8550,12/16.0/2018,2000,g 14.0,4.0
# From MPC103849
202P/Scotti,e,2.1703,194.0886,258.4695,3.820943,0.1319618,0.33085547,120.0669,12/16.0/2018,2000,g 13.5,4.0
# From MPC112393
203P/Korlevic,e,2.9732,290.3600,154.9533,4.668183,0.0977197,0.31471097,316.4677,12/16.0/2018,2000,g 14.5,2.0
# From MPC 98566
204P/LINEAR-NEAT,e,6.6104,108.8430,354.8731,3.644864,0.1416387,0.47519166,155.7536,12/16.0/2018,2000,g 14.0,4.0
# From MPC 98566
205P/Giacobini,e,15.2906,179.6041,154.1600,3.544291,0.1477100,0.56719577,193.8177,12/16.0/2018,2000,g 13.0,4.0
# From MPC 75725
206P/Barnard-Boattini,e,33.7440,202.5769,189.3647,3.485152,0.1514856,0.55198274,237.3891,12/16.0/2018,2000,g 19.0,4.0
# From MPC 75725
207P/NEAT,e,10.1566,200.4599,271.2472,3.870213,0.1294499,0.75871075,116.2168,12/16.0/2018,2000,g 16.0,4.0
# From MPC101100
208P/McMillan,e,4.4079,36.4009,310.3937,4.049939,0.1209292,0.37244513,108.5193,12/16.0/2018,2000,g 12.5,4.0
# From MPC 90771
209P/LINEAR,e,21.2586,62.7717,152.4927,2.961594,0.1933819,0.67328983,325.4228,12/16.0/2018,2000,g 17.0,2.0
# From MPC105242
210P/Christensen,e,10.2526,93.8264,345.8330,3.169972,0.1746308,0.83271941,276.3360,12/16.0/2018,2000,g 13.5,4.0
# From MPC 96868
211P/Hill,e,18.9065,117.1321,4.1862,3.552987,0.1471681,0.34083231,155.1505,12/16.0/2018,2000,g 12.5,4.0
# From MPC104795
212P/NEAT,e,22.5282,98.7195,14.9659,3.908637,0.1275458,0.58183694,105.3723,12/16.0/2018,2000,g 17.0,2.0
# From MPC110085
213P/Van Ness,e,10.3778,311.3132,5.5763,3.348863,0.1608266,0.40777067,71.9757,12/16.0/2018,2000,g 10.5,4.0
# From MPC 92986
214P/LINEAR,e,15.1965,348.2745,190.3026,3.614034,0.1434550,0.48667094,162.0626,12/16.0/2018,2000,g 13.0,4.0
# From MPC102102
215P/NEAT,e,10.5853,56.7199,261.7025,4.339523,0.1090288,0.16915181,323.4767,12/16.0/2018,2000,g 11.0,4.0
# From MPC 10028
216P/LINEAR,e,9.0474,359.8382,151.4400,3.871601,0.1293803,0.44527355,120.2589,12/16.0/2018,2000,g 13.0,4.0
# From MPC108598
217P/LINEAR,e,12.8590,125.4550,246.9178,3.954241,0.1253457,0.68773528,64.8610,12/16.0/2018,2000,g 12.0,4.0
# From MPC105242
218P/LINEAR,e,2.7252,176.0052,59.7203,3.095757,0.1809480,0.62200383,240.9989,12/16.0/2018,2000,g 16.0,4.0
# From MPC 10028
219P/LINEAR,e,11.5294,231.0218,107.3608,3.652781,0.1411785,0.35284095,93.6572,12/16.0/2018,2000,g 11.0,4.0
# From MPC105242
220P/McNaught,e,8.1274,150.1108,180.5870,3.114493,0.1793177,0.50153711,229.8271,12/16.0/2018,2000,g 15.0,4.0
# From MPC 93589
221P/LINEAR,e,11.4282,229.7476,39.9576,3.459423,0.1531788,0.49261463,191.8468,12/16.0/2018,2000,g 14.5,4.0
# From MPC 92277
222P/LINEAR,e,5.0949,6.8246,346.2064,2.899316,0.1996461,0.71432522,325.8524,12/16.0/2018,2000,g 20.0,4.0
# From MPC112394
223P/Skiff,e,27.0145,346.7935,37.8262,4.157853,0.1162520,0.41535377,355.0851,12/16.0/2018,2000,g 12.0,4.0
# From MPC 75727
224P/LINEAR-NEAT,e,13.4034,40.4828,16.7865,3.425616,0.1554519,0.41296303,145.5674,12/16.0/2018,2000,g 15.5,4.0
# From MPC 75727
225P/LINEAR,e,21.3344,14.1835,3.9032,3.652528,0.1411932,0.63718784,120.2091,12/16.0/2018,2000,g 18.0,4.0
# From MPC106349
226P/Pigott-LINEAR-Kowalski,e,44.0050,54.0053,341.1105,3.768620,0.1347195,0.52827712,112.1258,12/16.0/2018,2000,g 12.5,4.0
# From MPC102956
227P/Catalina-LINEAR,e,6.5235,49.7792,90.1240,3.582788,0.1453358,0.50231109,78.7262,12/16.0/2018,2000,g 16.5,2.0
# From MPC107687
228P/LINEAR,e,7.9100,31.0056,115.2960,4.176519,0.1154735,0.17740622,307.9559,12/16.0/2018,2000,g 14.5,2.0
# From MPC106349
229P/Gibbs,e,26.0712,157.8958,224.0791,3.934236,0.1263030,0.37600904,72.5586,12/16.0/2018,2000,g 13.0,4.0
# From MPC110497
230P/LINEAR,e,15.1354,108.2306,313.1206,3.412607,0.1563416,0.56270593,175.8077,12/16.0/2018,2000,g 13.0,4.0
# From MPC102102
231P/LINEAR-NEAT,e,12.3334,133.0283,42.7220,4.018015,0.1223733,0.24774838,337.9596,12/16.0/2018,2000,g 14.5,2.0
# From MPC112394
232P/Hill,e,14.6307,56.0306,53.5530,4.486959,0.1036993,0.33484730,348.4266,12/16.0/2018,2000,g 11.5,4.0
# From MPC 92986
